2025-313AJ              
1 67280U 25313AJ  26022.28937223  .00008701  00000+0  39767-3 0  9995
2 67280  97.4155  99.3533 0014475 148.1906 212.0207 15.20704022  3761
2025-313AK              
1 67281U 25313AK  26022.28789501  .00008772  00000+0  39999-3 0  9995
2 67281  97.4039  99.3283 0013193 147.0799 213.1261 15.20796545  3762
2025-313AL              
1 67282U 25313AL  26022.28190317  .00008970  00000+0  40458-3 0  9999
2 67282  97.4088  99.3401 0011996 146.0447 214.1559 15.21177680  3762
HORS 5                  
1 67283U 25313AM  26022.28035029  .00013233  00000+0  59169-3 0  9995
2 67283  97.4096  99.3451 0011787 145.9645 214.2349 15.21376091  3768
LOBACHEVSKY (RS83S)     
1 67284U 25313AN  26022.15077637  .00007357  00000+0  33343-3 0  9999
2 67284  97.4080  99.2075 0011937 146.5863 213.6128 15.21079441  3744
NASBSAT-2               
1 67285U 25313AP  26022.27928584  .00012232  00000+0  54648-3 0  9998
2 67285  97.4073  99.3382 0011440 147.2983 212.8963 15.21426623  3767
2025-313AQ              
1 67286U 25313AQ  26022.27874002  .00013279  00000+0  59286-3 0  9999
2 67286  97.4095  99.3545 0011110 142.5580 217.6432 15.21432351  3767
LUCA (RS90S)            
1 67287U 25313AR  26022.27753433  .00013760  00000+0  61175-3 0  9999
2 67287  97.4095  99.3565 0011015 144.1094 216.0884 15.21569769  3760
2025-313AS              
1 67288U 25313AS  26022.21338254  .00008684  00000+0  38979-3 0  9999
2 67288  97.4084  99.2849 0012889 137.4489 222.7749 15.21346325  3750
NASBSAT-1               
1 67289U 25313AT  26022.27561820  .00018085  00000+0  79715-3 0  9992
2 67289  97.4095  99.3596 0010836 144.5682 215.6276 15.21805748  3763
SAKHACUBE-CHOLBON (RS1*)
1 67290U 25313AU  26022.14468732  .00015387  00000+0  68162-3 0  9994
2 67290  97.4094  99.2290 0010716 143.9368 216.2593 15.21670853  3749
QMR-KWT-2 (RS95S)       
1 67291U 25313AV  26022.27535042  .00018420  00000+0  81178-3 0  9991
2 67291  97.4094  99.3597 0010558 143.5133 216.6825 15.21809055  3763
