CCSDS_OMM_VERS = 2.0
CREATION_DATE  = 
ORIGINATOR     = 

OBJECT_NAME    = 2025-313AJ
OBJECT_ID      = 2025-313AJ
CENTER_NAME    = EARTH
REF_FRAME      = TEME
TIME_SYSTEM    = UTC
MEAN_ELEMENT_THEORY = SGP/SGP4

EPOCH          = 2026-01-22T06:56:41.760672
MEAN_MOTION    = 15.20704022
ECCENTRICITY   = .00144755
INCLINATION    = 97.4155
RA_OF_ASC_NODE = 99.3533
ARG_OF_PERICENTER = 148.1906
MEAN_ANOMALY   = 212.0207

EPHEMERIS_TYPE = 0
CLASSIFICATION_TYPE = U
NORAD_CAT_ID   = 67280
ELEMENT_SET_NO = 999
REV_AT_EPOCH   = 376
BSTAR          = .39766753E-3
MEAN_MOTION_DOT = .8701E-4
MEAN_MOTION_DDOT = 0

CCSDS_OMM_VERS = 2.0
CREATION_DATE  = 
ORIGINATOR     = 

OBJECT_NAME    = 2025-313AK
OBJECT_ID      = 2025-313AK
CENTER_NAME    = EARTH
REF_FRAME      = TEME
TIME_SYSTEM    = UTC
MEAN_ELEMENT_THEORY = SGP/SGP4

EPOCH          = 2026-01-22T06:54:34.128864
MEAN_MOTION    = 15.20796545
ECCENTRICITY   = .00131933
INCLINATION    = 97.4039
RA_OF_ASC_NODE = 99.3283
ARG_OF_PERICENTER = 147.0799
MEAN_ANOMALY   = 213.1261

EPHEMERIS_TYPE = 0
CLASSIFICATION_TYPE = U
NORAD_CAT_ID   = 67281
ELEMENT_SET_NO = 999
REV_AT_EPOCH   = 376
BSTAR          = .39998781E-3
MEAN_MOTION_DOT = .8772E-4
MEAN_MOTION_DDOT = 0

CCSDS_OMM_VERS = 2.0
CREATION_DATE  = 
ORIGINATOR     = 

OBJECT_NAME    = 2025-313AL
OBJECT_ID      = 2025-313AL
CENTER_NAME    = EARTH
REF_FRAME      = TEME
TIME_SYSTEM    = UTC
MEAN_ELEMENT_THEORY = SGP/SGP4

EPOCH          = 2026-01-22T06:45:56.433888
MEAN_MOTION    = 15.21177680
ECCENTRICITY   = .00119963
INCLINATION    = 97.4088
RA_OF_ASC_NODE = 99.3401
ARG_OF_PERICENTER = 146.0447
MEAN_ANOMALY   = 214.1559

EPHEMERIS_TYPE = 0
CLASSIFICATION_TYPE = U
NORAD_CAT_ID   = 67282
ELEMENT_SET_NO = 999
REV_AT_EPOCH   = 376
BSTAR          = .40457752E-3
MEAN_MOTION_DOT = .897E-4
MEAN_MOTION_DDOT = 0

CCSDS_OMM_VERS = 2.0
CREATION_DATE  = 
ORIGINATOR     = 

OBJECT_NAME    = HORS 5
OBJECT_ID      = 2025-313AM
CENTER_NAME    = EARTH
REF_FRAME      = TEME
TIME_SYSTEM    = UTC
MEAN_ELEMENT_THEORY = SGP/SGP4

EPOCH          = 2026-01-22T06:43:42.265056
MEAN_MOTION    = 15.21376091
ECCENTRICITY   = .00117879
INCLINATION    = 97.4096
RA_OF_ASC_NODE = 99.3451
ARG_OF_PERICENTER = 145.9645
MEAN_ANOMALY   = 214.2349

EPHEMERIS_TYPE = 0
CLASSIFICATION_TYPE = U
NORAD_CAT_ID   = 67283
ELEMENT_SET_NO = 999
REV_AT_EPOCH   = 376
BSTAR          = .59169324E-3
MEAN_MOTION_DOT = .13233E-3
MEAN_MOTION_DDOT = 0

CCSDS_OMM_VERS = 2.0
CREATION_DATE  = 
ORIGINATOR     = 

OBJECT_NAME    = LOBACHEVSKY (RS83S)
OBJECT_ID      = 2025-313AN
CENTER_NAME    = EARTH
REF_FRAME      = TEME
TIME_SYSTEM    = UTC
MEAN_ELEMENT_THEORY = SGP/SGP4

EPOCH          = 2026-01-22T03:37:07.078368
MEAN_MOTION    = 15.21079441
ECCENTRICITY   = .00119376
INCLINATION    = 97.4080
RA_OF_ASC_NODE = 99.2075
ARG_OF_PERICENTER = 146.5863
MEAN_ANOMALY   = 213.6128

EPHEMERIS_TYPE = 0
CLASSIFICATION_TYPE = U
NORAD_CAT_ID   = 67284
ELEMENT_SET_NO = 999
REV_AT_EPOCH   = 374
BSTAR          = .33343126E-3
MEAN_MOTION_DOT = .7357E-4
MEAN_MOTION_DDOT = 0

CCSDS_OMM_VERS = 2.0
CREATION_DATE  = 
ORIGINATOR     = 

OBJECT_NAME    = NASBSAT-2
OBJECT_ID      = 2025-313AP
CENTER_NAME    = EARTH
REF_FRAME      = TEME
TIME_SYSTEM    = UTC
MEAN_ELEMENT_THEORY = SGP/SGP4

EPOCH          = 2026-01-22T06:42:10.296576
MEAN_MOTION    = 15.21426623
ECCENTRICITY   = .001144
INCLINATION    = 97.4073
RA_OF_ASC_NODE = 99.3382
ARG_OF_PERICENTER = 147.2983
MEAN_ANOMALY   = 212.8963

EPHEMERIS_TYPE = 0
CLASSIFICATION_TYPE = U
NORAD_CAT_ID   = 67285
ELEMENT_SET_NO = 999
REV_AT_EPOCH   = 376
BSTAR          = .5464777E-3
MEAN_MOTION_DOT = .12232E-3
MEAN_MOTION_DDOT = 0

CCSDS_OMM_VERS = 2.0
CREATION_DATE  = 
ORIGINATOR     = 

OBJECT_NAME    = 2025-313AQ
OBJECT_ID      = 2025-313AQ
CENTER_NAME    = EARTH
REF_FRAME      = TEME
TIME_SYSTEM    = UTC
MEAN_ELEMENT_THEORY = SGP/SGP4

EPOCH          = 2026-01-22T06:41:23.137728
MEAN_MOTION    = 15.21432351
ECCENTRICITY   = .00111105
INCLINATION    = 97.4095
RA_OF_ASC_NODE = 99.3545
ARG_OF_PERICENTER = 142.5580
MEAN_ANOMALY   = 217.6432

EPHEMERIS_TYPE = 0
CLASSIFICATION_TYPE = U
NORAD_CAT_ID   = 67286
ELEMENT_SET_NO = 999
REV_AT_EPOCH   = 376
BSTAR          = .59286209E-3
MEAN_MOTION_DOT = .13279E-3
MEAN_MOTION_DDOT = 0

CCSDS_OMM_VERS = 2.0
CREATION_DATE  = 
ORIGINATOR     = 

OBJECT_NAME    = LUCA (RS90S)
OBJECT_ID      = 2025-313AR
CENTER_NAME    = EARTH
REF_FRAME      = TEME
TIME_SYSTEM    = UTC
MEAN_ELEMENT_THEORY = SGP/SGP4

EPOCH          = 2026-01-22T06:39:38.966112
MEAN_MOTION    = 15.21569769
ECCENTRICITY   = .00110154
INCLINATION    = 97.4095
RA_OF_ASC_NODE = 99.3565
ARG_OF_PERICENTER = 144.1094
MEAN_ANOMALY   = 216.0884

EPHEMERIS_TYPE = 0
CLASSIFICATION_TYPE = U
NORAD_CAT_ID   = 67287
ELEMENT_SET_NO = 999
REV_AT_EPOCH   = 376
BSTAR          = .61175375E-3
MEAN_MOTION_DOT = .1376E-3
MEAN_MOTION_DDOT = 0

CCSDS_OMM_VERS = 2.0
CREATION_DATE  = 
ORIGINATOR     = 

OBJECT_NAME    = 2025-313AS
OBJECT_ID      = 2025-313AS
CENTER_NAME    = EARTH
REF_FRAME      = TEME
TIME_SYSTEM    = UTC
MEAN_ELEMENT_THEORY = SGP/SGP4

EPOCH          = 2026-01-22T05:07:16.251456
MEAN_MOTION    = 15.21346325
ECCENTRICITY   = .00128894
INCLINATION    = 97.4084
RA_OF_ASC_NODE = 99.2849
ARG_OF_PERICENTER = 137.4489
MEAN_ANOMALY   = 222.7749

EPHEMERIS_TYPE = 0
CLASSIFICATION_TYPE = U
NORAD_CAT_ID   = 67288
ELEMENT_SET_NO = 999
REV_AT_EPOCH   = 375
BSTAR          = .38979315E-3
MEAN_MOTION_DOT = .8684E-4
MEAN_MOTION_DDOT = 0

CCSDS_OMM_VERS = 2.0
CREATION_DATE  = 
ORIGINATOR     = 

OBJECT_NAME    = NASBSAT-1
OBJECT_ID      = 2025-313AT
CENTER_NAME    = EARTH
REF_FRAME      = TEME
TIME_SYSTEM    = UTC
MEAN_ELEMENT_THEORY = SGP/SGP4

EPOCH          = 2026-01-22T06:36:53.412480
MEAN_MOTION    = 15.21805748
ECCENTRICITY   = .00108368
INCLINATION    = 97.4095
RA_OF_ASC_NODE = 99.3596
ARG_OF_PERICENTER = 144.5682
MEAN_ANOMALY   = 215.6276

EPHEMERIS_TYPE = 0
CLASSIFICATION_TYPE = U
NORAD_CAT_ID   = 67289
ELEMENT_SET_NO = 999
REV_AT_EPOCH   = 376
BSTAR          = .79715467E-3
MEAN_MOTION_DOT = .18085E-3
MEAN_MOTION_DDOT = 0

CCSDS_OMM_VERS = 2.0
CREATION_DATE  = 
ORIGINATOR     = 

OBJECT_NAME    = SAKHACUBE-CHOLBON (RS18S)
OBJECT_ID      = 2025-313AU
CENTER_NAME    = EARTH
REF_FRAME      = TEME
TIME_SYSTEM    = UTC
MEAN_ELEMENT_THEORY = SGP/SGP4

EPOCH          = 2026-01-22T03:28:20.984448
MEAN_MOTION    = 15.21670853
ECCENTRICITY   = .0010716
INCLINATION    = 97.4094
RA_OF_ASC_NODE = 99.2290
ARG_OF_PERICENTER = 143.9368
MEAN_ANOMALY   = 216.2593

EPHEMERIS_TYPE = 0
CLASSIFICATION_TYPE = U
NORAD_CAT_ID   = 67290
ELEMENT_SET_NO = 999
REV_AT_EPOCH   = 374
BSTAR          = .68162255E-3
MEAN_MOTION_DOT = .15387E-3
MEAN_MOTION_DDOT = 0

CCSDS_OMM_VERS = 2.0
CREATION_DATE  = 
ORIGINATOR     = 

OBJECT_NAME    = QMR-KWT-2 (RS95S)
OBJECT_ID      = 2025-313AV
CENTER_NAME    = EARTH
REF_FRAME      = TEME
TIME_SYSTEM    = UTC
MEAN_ELEMENT_THEORY = SGP/SGP4

EPOCH          = 2026-01-22T06:36:30.276288
MEAN_MOTION    = 15.21809055
ECCENTRICITY   = .00105585
INCLINATION    = 97.4094
RA_OF_ASC_NODE = 99.3597
ARG_OF_PERICENTER = 143.5133
MEAN_ANOMALY   = 216.6825

EPHEMERIS_TYPE = 0
CLASSIFICATION_TYPE = U
NORAD_CAT_ID   = 67291
ELEMENT_SET_NO = 999
REV_AT_EPOCH   = 376
BSTAR          = .81178182E-3
MEAN_MOTION_DOT = .1842E-3
MEAN_MOTION_DDOT = 0

